[{"OBJECT_NAME":"STARLINK-31226","OBJECT_ID":"2024-019F","EPOCH":"2026-03-09T21:42:06.764544","MEAN_MOTION":15.27576188,"ECCENTRICITY":0.00016706,"INCLINATION":43.0009,"RA_OF_ASC_NODE":247.8462,"ARG_OF_PERICENTER":270.2377,"MEAN_ANOMALY":89.8283,"EPHEMERIS_TYPE":0,"CLASSIFICATION_TYPE":"U","NORAD_CAT_ID":58858,"ELEMENT_SET_NO":999,"REV_AT_EPOCH":11911,"BSTAR":5.5508871e-5,"MEAN_MOTION_DOT":1.265e-5,"MEAN_MOTION_DDOT":0},{"OBJECT_NAME":"OBJECT A","OBJECT_ID":"2025-234A","EPOCH":"2026-03-09T23:03:34.210368","MEAN_MOTION":15.32505956,"ECCENTRICITY":0.00130678,"INCLINATION":97.4388,"RA_OF_ASC_NODE":139.352,"ARG_OF_PERICENTER":148.634,"MEAN_ANOMALY":211.5684,"EPHEMERIS_TYPE":0,"CLASSIFICATION_TYPE":"U","NORAD_CAT_ID":66053,"ELEMENT_SET_NO":999,"REV_AT_EPOCH":2164,"BSTAR":0.0014840662,"MEAN_MOTION_DOT":0.00046856,"MEAN_MOTION_DDOT":0}]
